NORAD_CAT_ID,OBJECT_NAME,OBJECT_TYPE,EPOCH,MEAN_MOTION,ECCENTRICITY,INCLINATION,RA_OF_ASC_NODE,ARG_OF_PERICENTER,MEAN_ANOMALY,BSTAR,MEAN_MOTION_DOT,MEAN_MOTION_DDOT,TLE_LINE0,TLE_LINE1,TLE_LINE2,SEMIMAJOR_AXIS,PERIOD,APOGEE,PERIGEE,DECAYED
55633.0,STARLINK-5498,PAYLOAD,2023-05-20 16:36:42,14.98340896,0.0003214,69.9997,266.2992,270.232,89.8471,0.00014077,1.587e-05,0.0,0 STARLINK-5498,1 55633U 23021F   23140.69215547  .00001587  00000-0  14077-3 0  9992,2 55633  69.9997 266.2992 0003214 270.2320  89.8471 14.98340896 14616,6950.159,96.106,574.258,569.79,0.0
55633.0,STARLINK-5498,PAYLOAD,2023-05-20 18:12:50,14.98342653,0.0003211,70.0,266.1311,270.7495,89.3296,0.00015949,1.811e-05,0.0,0 STARLINK-5498,1 55633U 23021F   23140.75891355  .00001811  00000-0  15949-3 0  9995,2 55633  70.0000 266.1311 0003211 270.7495  89.3296 14.98342653 14920,6950.154,96.106,574.25,569.787,0.0
55633.0,STARLINK-5498,PAYLOAD,2023-05-21 02:13:31,14.9832992,0.0002676,70.003,265.2923,280.1476,79.9381,6.5129e-05,6.84e-06,0.0,0 STARLINK-5498,1 55633U 23021F   23141.09272429  .00000684  00000-0  65129-4 0  9991,2 55633  70.0030 265.2923 0002676 280.1476  79.9381 14.98329920 14674,6950.193,96.107,573.918,570.198,0.0
55633.0,STARLINK-5498,PAYLOAD,2023-05-21 10:14:12,14.98325019,0.0003185,70.0001,264.4483,270.0822,89.9972,-1.1175e-05,-2.26e-06,0.0,0 STARLINK-5498,1 55633U 23021F   23141.42652823 -.00000226  00000-0 -11175-4 0  9994,2 55633  70.0001 264.4483 0003185 270.0822  89.9972 14.98325019 15025,6950.208,96.107,574.287,569.86,0.0
55633.0,STARLINK-5498,PAYLOAD,2023-05-21 15:02:36,14.98325122,0.0003311,69.9998,263.9427,266.2937,93.7844,-1.4809e-05,-2.7e-06,0.0,0 STARLINK-5498,1 55633U 23021F   23141.62680835 -.00000270  00000-0 -14809-4 0  9996,2 55633  69.9998 263.9427 0003311 266.2937  93.7844 14.98325122 14759,6950.208,96.107,574.374,569.772,0.0
55633.0,STARLINK-5498,PAYLOAD,2023-05-21 18:14:52,14.98325862,0.0003209,70.0001,263.6064,268.6535,91.4256,7.2483e-06,-7e-08,0.0,0 STARLINK-5498,1 55633U 23021F   23141.76032823 -.00000007  00000-0  72483-5 0  9999,2 55633  70.0001 263.6064 0003209 268.6535  91.4256 14.98325862 15076,6950.206,96.107,574.301,569.84,0.0
55633.0,STARLINK-5498,PAYLOAD,2023-05-22 07:03:56,14.98336636,0.00032,70.0002,262.2597,267.7296,92.3497,1.5017e-06,-7.5e-07,0.0,0 STARLINK-5498,1 55633U 23021F   23142.29440177 -.00000075  00000-0  15017-5 0  9998,2 55633  70.0002 262.2597 0003200 267.7296  92.3497 14.98336636 14851,6950.172,96.107,574.261,569.813,0.0
55633.0,STARLINK-5498,PAYLOAD,2023-05-22 10:16:12,14.9833749,0.0003212,70.0001,261.9231,267.4912,92.5879,1.3993e-05,7.4e-07,0.0,0 STARLINK-5498,1 55633U 23021F   23142.42792042  .00000074  00000-0  13993-4 0  9992,2 55633  70.0001 261.9231 0003212 267.4912  92.5879 14.98337490 15177,6950.17,96.107,574.267,569.802,0.0
55633.0,STARLINK-5498,PAYLOAD,2023-05-22 16:40:44,14.98341459,0.0003273,69.9998,261.2496,264.7302,95.3484,3.099e-05,2.77e-06,0.0,0 STARLINK-5498,1 55633U 23021F   23142.69495607  .00000277  00000-0  30990-4 0  9999,2 55633  69.9998 261.2496 0003273 264.7302  95.3484 14.98341459 15213,6950.157,96.106,574.297,569.748,0.0
55633.0,STARLINK-5498,PAYLOAD,2023-05-23 11:54:21,14.98325407,0.0003222,69.9999,259.2297,265.5366,94.5425,7.3387e-05,7.83e-06,0.0,0 STARLINK-5498,1 55633U 23021F   23143.49608505  .00000783  00000-0  73387-4 0  9990,2 55633  69.9999 259.2297 0003222 265.5366  94.5425 14.98325407 15034,6950.207,96.107,574.311,569.833,0.0
55633.0,STARLINK-5498,PAYLOAD,2023-05-23 16:42:46,14.98321849,0.0003,70.0008,258.7263,256.5101,103.5724,6.8733e-05,7.27e-06,0.0,0 STARLINK-5498,1 55633U 23021F   23143.69636790  .00000727  00000-0  68733-4 0  9996,2 55633  70.0008 258.7263 0003000 256.5101 103.5724 14.98321849 15361,6950.218,96.108,574.168,569.998,0.0
55633.0,STARLINK-5498,PAYLOAD,2023-05-24 15:08:38,14.98332373,0.0003296,70.0,256.3688,267.8445,92.2336,-2.3621e-06,-1.21e-06,0.0,0 STARLINK-5498,1 55633U 23021F   23144.63100338 -.00000121  00000-0 -23621-5 0  9993,2 55633  70.0000 256.3688 0003296 267.8445  92.2336 14.98332373 15201,6950.186,96.107,574.341,569.76,0.0
55633.0,STARLINK-5498,PAYLOAD,2023-05-25 16:46:47,14.98329523,0.0003017,70.0011,253.6774,253.0709,107.0119,8.4696e-05,9.18e-06,0.0,0 STARLINK-5498,1 55633U 23021F   23145.69916187  .00000918  00000-0  84696-4 0  9997,2 55633  70.0011 253.6774 0003017 253.0709 107.0119 14.98329523 15364,6950.194,96.107,574.156,569.962,0.0
55633.0,STARLINK-5498,PAYLOAD,2023-05-26 13:36:32,14.98330832,0.0003319,70.0002,251.488,267.6582,92.4197,4.112e-05,3.98e-06,0.0,0 STARLINK-5498,1 55633U 23021F   23146.56704142  .00000398  00000-0  41120-4 0  9997,2 55633  70.0002 251.4880 0003319 267.6582  92.4197 14.98330832 15798,6950.19,96.107,574.362,569.749,0.0
55633.0,STARLINK-5498,PAYLOAD,2023-05-26 16:48:48,14.98330708,0.0003326,70.0002,251.1514,267.7007,92.3771,3.6822e-05,3.46e-06,0.0,0 STARLINK-5498,1 55633U 23021F   23146.70056153  .00000346  00000-0  36822-4 0  9991,2 55633  70.0002 251.1514 0003326 267.7007  92.3771 14.98330708 15519,6950.191,96.107,574.367,569.744,0.0
55633.0,STARLINK-5498,PAYLOAD,2023-05-27 16:50:49,14.98331045,0.0003463,69.9999,248.6257,269.9653,90.1109,1.7206e-06,-7.3e-07,0.0,0 STARLINK-5498,1 55633U 23021F   23147.70196137 -.00000073  00000-0  17206-5 0  9993,2 55633  69.9999 248.6257 0003463 269.9653  90.1109 14.98331045 15661,6950.19,96.107,574.462,569.648,0.0
55633.0,STARLINK-5498,PAYLOAD,2023-05-28 16:52:49,14.98339298,0.0003501,69.9998,246.101,269.7005,90.3753,0.00011168,1.24e-05,0.0,0 STARLINK-5498,1 55633U 23021F   23148.70335101  .00001240  00000-0  11168-3 0  9995,2 55633  69.9998 246.1010 0003501 269.7005  90.3753 14.98339298 15814,6950.164,96.106,574.462,569.596,0.0
55633.0,STARLINK-5498,PAYLOAD,2023-05-28 23:17:22,14.98333049,0.0003462,70.0,245.4277,269.9102,90.1661,5.3467e-05,5.45e-06,0.0,0 STARLINK-5498,1 55633U 23021F   23148.97039553  .00000545  00000-0  53467-4 0  9992,2 55633  70.0000 245.4277 0003462 269.9102  90.1661 14.98333049 15852,6950.183,96.107,574.455,569.642,0.0
55633.0,STARLINK-5498,PAYLOAD,2023-05-29 13:42:34,14.98330942,0.0003445,70.0,243.9133,268.8838,91.1926,2.6007e-05,2.17e-06,0.0,0 STARLINK-5498,1 55633U 23021F   23149.57123663  .00000217  00000-0  26007-4 0  9991,2 55633  70.0000 243.9133 0003445 268.8838  91.1926 14.98330942 16249,6950.19,96.107,574.449,569.661,0.0
55633.0,STARLINK-5498,PAYLOAD,2023-05-29 16:54:50,14.98331641,0.0003447,70.0,243.5766,269.0245,91.0519,3.1479e-05,2.83e-06,0.0,0 STARLINK-5498,1 55633U 23021F   23149.70475587  .00000283  00000-0  31479-4 0  9993,2 55633  70.0000 243.5766 0003447 269.0245  91.0519 14.98331641 16260,6950.188,96.107,574.449,569.657,0.0
55633.0,STARLINK-5498,PAYLOAD,2023-05-29 23:19:23,14.9833182,0.0003347,70.0003,242.9028,270.4195,89.658,-4.7375e-05,-6.58e-06,0.0,0 STARLINK-5498,1 55633U 23021F   23149.97179763 -.00000658  00000-0 -47375-4 0  9999,2 55633  70.0003 242.9028 0003347 270.4195  89.6580 14.98331820 16008,6950.187,96.107,574.378,569.726,0.0
55633.0,STARLINK-5498,PAYLOAD,2023-05-30 12:08:27,14.9832937,0.0003332,70.0003,241.5568,267.6821,92.3957,-4.1663e-05,-5.9e-06,0.0,0 STARLINK-5498,1 55633U 23021F   23150.50587868 -.00000590  00000-0 -41663-4 0  9998,2 55633  70.0003 241.5568 0003332 267.6821  92.3957 14.98329370 16387,6950.195,96.107,574.376,569.744,0.0
55633.0,STARLINK-5498,PAYLOAD,2023-05-30 15:20:44,14.98329442,0.0003411,70.0001,241.22,269.4576,90.6192,-7.7444e-05,-1.017e-05,0.0,0 STARLINK-5498,1 55633U 23021F   23150.63939958 -.00001017  00000-0 -77444-4 0  9994,2 55633  70.0001 241.2200 0003411 269.4576  90.6192 14.98329442 16405,6950.195,96.107,574.43,569.689,0.0
55633.0,STARLINK-5498,PAYLOAD,2023-05-30 23:21:23,14.98372702,0.000322,70.0001,240.3785,262.3139,97.7655,-0.00077303,-9.315e-05,0.0,0 STARLINK-5498,1 55633U 23021F   23150.97318757 -.00009315  00000-0 -77303-3 0  9991,2 55633  70.0001 240.3785 0003220 262.3139  97.7655 14.98372702 16159,6950.061,96.104,574.164,569.688,0.0
55633.0,STARLINK-5498,PAYLOAD,2023-05-31 10:34:20,14.98329459,0.0003549,69.9999,239.2003,269.9247,90.1505,3.7297e-05,3.52e-06,0.0,0 STARLINK-5498,1 55633U 23021F   23151.44051643  .00000352  00000-0  37297-4 0  9991,2 55633  69.9999 239.2003 0003549 269.9247  90.1505 14.98329459 16229,6950.195,96.107,574.526,569.593,0.0
55633.0,STARLINK-5498,PAYLOAD,2023-05-31 13:46:36,14.98331306,0.0003561,69.9999,238.8635,269.9553,90.1198,3.4633e-05,3.2e-06,0.0,0 STARLINK-5498,1 55633U 23021F   23151.57403529  .00000320  00000-0  34633-4 0  9995,2 55633  69.9999 238.8635 0003561 269.9553  90.1198 14.98331306 16546,6950.189,96.107,574.529,569.579,0.0
55633.0,STARLINK-5498,PAYLOAD,2023-05-31 15:22:44,14.98331626,0.0003568,69.9999,238.6952,270.0287,90.0463,3.7301e-05,3.52e-06,0.0,0 STARLINK-5498,1 55633U 23021F   23151.64079498  .00000352  00000-0  37301-4 0  9997,2 55633  69.9999 238.6952 0003568 270.0287  90.0463 14.98331626 16550,6950.188,96.107,574.533,569.573,0.0
55633.0,STARLINK-5498,PAYLOAD,2023-06-01 10:36:21,14.98328294,0.0003619,69.9998,236.6757,269.6708,90.4036,6.66e-05,7.02e-06,0.0,0 STARLINK-5498,1 55633U 23021F   23152.44191679  .00000702  00000-0  66600-4 0  9995,2 55633  69.9998 236.6757 0003619 269.6708  90.4036 14.98328294 16679,6950.198,96.107,574.578,569.548,0.0
55633.0,STARLINK-5498,PAYLOAD,2023-06-02 10:38:22,14.98330559,0.0003556,69.9997,234.1503,269.639,90.4361,1.6686e-05,1.06e-06,0.0,0 STARLINK-5498,1 55633U 23021F   23153.44331669  .00000106  00000-0  16686-4 0  9998,2 55633  69.9997 234.1503 0003556 269.6390  90.4361 14.98330559 16529,6950.191,96.107,574.528,569.585,0.0
55633.0,STARLINK-5498,PAYLOAD,2023-06-02 12:14:30,14.9832984,0.0003597,69.9996,233.9819,268.8125,91.2622,9.105e-07,-8.2e-07,0.0,0 STARLINK-5498,1 55633U 23021F   23153.51007770 -.00000082  00000-0  91050-6 0  9993,2 55633  69.9996 233.9819 0003597 268.8125  91.2622 14.98329840 16831,6950.193,96.107,574.558,569.558,0.0
